{
"type": "FeatureCollection",
"name": "sure start centres",
"crs": { "type": "name", "properties": { "name": "urn:ogc:def:crs:OGC:1.3:CRS84" } },
"features": [
{ "type": "Feature", "properties": { "sure start centre": "Ballymena South Sure Start", "postcode": "BT42 4DN", "opened": "<2006", "id": 1723073.0 }, "geometry": { "type": "Point", "coordinates": [ -6.258817, 54.858722 ] } },
{ "type": "Feature", "properties": { "sure start centre": "Coleraine Sure Start", "postcode": "BT52 2QR", "opened": "<2006", "id": 1705794.0 }, "geometry": { "type": "Point", "coordinates": [ -6.658485, 55.145331 ] } },
{ "type": "Feature", "properties": { "sure start centre": "Dalriada Sure Start", "postcode": "BT57 8QD", "opened": "<2006", "id": 1736621.0 }, "geometry": { "type": "Point", "coordinates": [ -6.52301, 55.205003 ] } },
{ "type": "Feature", "properties": { "sure start centre": "G-Old Community Sure Start", "postcode": "BT80 8NH", "opened": "<2006", "id": 1741606.0 }, "geometry": { "type": "Point", "coordinates": [ -6.743858, 54.649047 ] } },
{ "type": "Feature", "properties": { "sure start centre": "Abbey Sure Start", "postcode": "BT37 9DQ", "opened": "<2006", "id": 1709669.0 }, "geometry": { "type": "Point", "coordinates": [ -5.917082, 54.665058 ] } },
{ "type": "Feature", "properties": { "sure start centre": "Blossom Sure Start", "postcode": "BT62 1DS", "opened": "<2006", "id": 1711220.0 }, "geometry": { "type": "Point", "coordinates": [ -6.447764, 54.424378 ] } },
{ "type": "Feature", "properties": { "sure start centre": "Clogher Valley Sure Start", "postcode": "BT77 0BG", "opened": "<2006", "id": 1734766.0 }, "geometry": { "type": "Point", "coordinates": [ -7.130641, 54.428277 ] } },
{ "type": "Feature", "properties": { "sure start centre": "Dungannon Sure Start", "postcode": "BT70 1BS", "opened": "<2006", "id": 1738311.0 }, "geometry": { "type": "Point", "coordinates": [ -6.779313, 54.502841 ] } },
{ "type": "Feature", "properties": { "sure start centre": "Orana Sure Start", "postcode": "BT34 2PF", "opened": "<2006", "id": 1731989.0 }, "geometry": { "type": "Point", "coordinates": [ -6.32941, 54.163174 ] } },
{ "type": "Feature", "properties": { "sure start centre": "Cherish Sure Start", "postcode": "BT94 1HG", "opened": "<2006", "id": 1938489.0 }, "geometry": { "type": "Point", "coordinates": [ -7.614476, 54.449828 ] } },
{ "type": "Feature", "properties": { "sure start centre": "Dungiven Sure Start", "postcode": "BT47 4QL", "opened": "<2006", "id": 1726436.0 }, "geometry": { "type": "Point", "coordinates": [ -6.914164, 54.937678 ] } },
{ "type": "Feature", "properties": { "sure start centre": "Last Sure Start", "postcode": "BT79 7XL", "opened": "<2006", "id": 1740259.0 }, "geometry": { "type": "Point", "coordinates": [ -7.311985, 54.611521 ] } },
{ "type": "Feature", "properties": { "sure start centre": "Little Hands Sure Start", "postcode": "BT48 0PZ", "opened": "<2006", "id": 1727022.0 }, "geometry": { "type": "Point", "coordinates": [ -7.349891, 55.015859 ] } },
{ "type": "Feature", "properties": { "sure start centre": "Shantallow Sure Start", "postcode": "BT48 8HJ", "opened": "<2006", "id": 1733016.0 }, "geometry": { "type": "Point", "coordinates": [ -7.316685, 55.026266 ] } },
{ "type": "Feature", "properties": { "sure start centre": "Strabane Sure Start", "postcode": "BT82 9BT", "opened": "<2006", "id": 1745808.0 }, "geometry": { "type": "Point", "coordinates": [ -7.470763, 54.819883 ] } },
{ "type": "Feature", "properties": { "sure start centre": "Colin Neighbourhood Sure Start", "postcode": "BT17 OGD", "opened": "<2006", "id": null }, "geometry": { "type": "Point", "coordinates": [ -6.029012, 54.552252 ] } },
{ "type": "Feature", "properties": { "sure start centre": "Downpatrick Sure Start", "postcode": "BT30 6NE", "opened": "<2006", "id": 1714920.0 }, "geometry": { "type": "Point", "coordinates": [ -5.716647, 54.325059 ] } },
{ "type": "Feature", "properties": { "sure start centre": "Lower Ards Sure Start", "postcode": "BT22 1EB", "opened": "<2006", "id": 1708284.0 }, "geometry": { "type": "Point", "coordinates": [ -5.441425, 54.456305 ] } },
{ "type": "Feature", "properties": { "sure start centre": "Clan MÃ³r Sure Start", "postcode": "BT12 4HL", "opened": "<2006", "id": 1705142.0 }, "geometry": { "type": "Point", "coordinates": [ -5.945551, 54.597896 ] } },
{ "type": "Feature", "properties": { "sure start centre": "Inner City East Belfast Sure Start (East belfast)", "postcode": "BT5 4GS", "opened": "<2006", "id": 1733833.0 }, "geometry": { "type": "Point", "coordinates": [ -5.90354, 54.595321 ] } },
{ "type": "Feature", "properties": { "sure start centre": "Glenbrook Sure Start", "postcode": "BT14 7EJ", "opened": "<2006", "id": 1713062.0 }, "geometry": { "type": "Point", "coordinates": [ -5.957224, 54.612905 ] } },
{ "type": "Feature", "properties": { "sure start centre": "SMILE Sure Start", "postcode": "BT15 2GN", "opened": "<2006", "id": 1697819.0 }, "geometry": { "type": "Point", "coordinates": [ -5.933793, 54.613693 ] } },
{ "type": "Feature", "properties": { "sure start centre": "Shankill Sure Start", "postcode": "BT13 2BB", "opened": "<2006", "id": 1712387.0 }, "geometry": { "type": "Point", "coordinates": [ -5.943859, 54.603519 ] } },
{ "type": "Feature", "properties": { "sure start centre": "Inner City South Belfast Sure Start", "postcode": "BT7 1NR", "opened": "<2006", "id": 1743478.0 }, "geometry": { "type": "Point", "coordinates": [ -5.933904, 54.587937 ] } },
{ "type": "Feature", "properties": { "sure start centre": "Horizon Sure Start", "postcode": "BT38 8JJ", "opened": "=>2006", "id": 1710204.0 }, "geometry": { "type": "Point", "coordinates": [ -5.815288, 54.721065 ] } },
{ "type": "Feature", "properties": { "sure start centre": "South Armagh Sure Start", "postcode": "BT35 7JG", "opened": "=>2006", "id": 1699310.0 }, "geometry": { "type": "Point", "coordinates": [ -6.40952, 54.181043 ] } },
{ "type": "Feature", "properties": { "sure start centre": "Splash Sure Start", "postcode": "BT65 5BE", "opened": "=>2006", "id": 1742219.0 }, "geometry": { "type": "Point", "coordinates": [ -6.369961, 54.448653 ] } }
]
}
